STARLINK-32332          
1 62490U 25003D   26067.99282164  .00034190  00000+0  12452-2 0  9995
2 62490  43.0049 293.0230 0002782 264.0944  95.9590 15.27604214 66540
AL MUNTHER              
1 63240U 25052AG  26068.64540749  .00017933  00000+0  65015-3 0  9992
2 63240  97.4001 323.9152 0008027 130.7043 229.4895 15.28381521 54798
